ONEWEB-0032             
1 45141U 20008L   24080.83121591 -.00000186  00000+0 -56839-3 0  9999
2 45141  87.8981 198.8987 0001662 102.0504 258.0810 13.10377755201124
ONEWEB-0033             
1 45142U 20008M   24080.88155106 -.00000465  00000+0 -13695-2 0  9996
2 45142  87.8974 198.8971 0001515 112.0701 248.0587 13.10369828201040
ONEWEB-0035             
1 45143U 20008N   24080.83769444  .00000161  00000+0  42367-3 0  9998
2 45143  87.8987 198.8827 0001561 107.3506 252.7792 13.10378206200764
ONEWEB-0036             
1 45144U 20008P   24081.36244629 -.00000320  00000+0 -95161-3 0  9990
2 45144  87.8985 198.7397 0001834  98.0037 262.1299 13.10377385202128
ONEWEB-0038             
1 45145U 20008Q   24081.17837520  .00000177  00000+0  46489-3 0  9995
2 45145  87.9041 183.7131 0001676  79.0216 281.1101 13.11419237203909
ONEWEB-0039             
1 45146U 20008R   24081.57203000 -.00000491  00000+0 -14425-2 0  9995
2 45146  87.8978 198.7145 0002110  95.7629 264.3738 13.10372869201866
ONEWEB-0040             
1 45147U 20008S   24081.56552611 -.00000103  00000+0 -33056-3 0  9992
2 45147  87.8985 198.7117 0001794 102.8916 257.2412 13.10368619201576
ONEWEB-0041             
1 45148U 20008T   24081.23429306  .00000108  00000+0  15153-3 0  9992
2 45148  87.9482 173.9664 0019103  61.1223 299.1840 13.48449085208624
